NORAD_CAT_ID,OBJECT_NAME,OBJECT_TYPE,EPOCH,MEAN_MOTION,ECCENTRICITY,INCLINATION,RA_OF_ASC_NODE,ARG_OF_PERICENTER,MEAN_ANOMALY,BSTAR,MEAN_MOTION_DOT,MEAN_MOTION_DDOT,TLE_LINE0,TLE_LINE1,TLE_LINE2,SEMIMAJOR_AXIS,PERIOD,APOGEE,PERIGEE,DECAYED
55630.0,STARLINK-5303,PAYLOAD,2024-03-11 22:02:52,14.98338126,0.0002842,69.9995,239.4823,273.0862,86.9971,6.442e-05,6.76e-06,0.0,0 STARLINK-5303,1 55630U 23021C   24071.91866767  .00000676  00000-0  64420-4 0  9990,2 55630  69.9995 239.4823 0002842 273.0862  86.9971 14.98338126 58988,6950.168,96.106,574.008,570.058,0.0
55630.0,STARLINK-5303,PAYLOAD,2024-03-12 12:28:05,14.9833214,0.0002824,69.9974,237.9669,270.2705,89.813,2.015e-05,1.47e-06,0.0,0 STARLINK-5303,1 55630U 23021C   24072.51951185  .00000147  00000-0  20150-4 0  9991,2 55630  69.9974 237.9669 0002824 270.2705  89.8130 14.98332140 59071,6950.186,96.107,574.014,570.089,0.0
55630.0,STARLINK-5303,PAYLOAD,2024-03-12 17:16:30,14.98330967,0.0002939,69.9993,237.4614,264.7647,95.3176,3.5709e-06,-5e-07,0.0,0 STARLINK-5303,1 55630U 23021C   24072.71979222 -.00000050  00000-0  35709-5 0  9996,2 55630  69.9993 237.4614 0002939 264.7647  95.3176 14.98330967 59401,6950.19,96.107,574.098,570.012,0.0
55630.0,STARLINK-5303,PAYLOAD,2024-03-13 12:30:06,14.98331472,0.0002954,69.9991,235.4414,267.2354,92.8467,5.7954e-05,5.99e-06,0.0,0 STARLINK-5303,1 55630U 23021C   24073.52091074  .00000599  00000-0  57954-4 0  9998,2 55630  69.9991 235.4414 0002954 267.2354  92.8467 14.98331472 59222,6950.188,96.107,574.106,570.0,0.0
55630.0,STARLINK-5303,PAYLOAD,2024-03-13 17:18:30,14.98332735,0.0003064,69.9994,234.9387,269.3219,90.7589,1.6691e-05,1.06e-06,0.0,0 STARLINK-5303,1 55630U 23021C   24073.72119114  .00000106  00000-0  16691-4 0  9993,2 55630  69.9994 234.9387 0003064 269.3219  90.7589 14.98332735 59555,6950.184,96.107,574.179,569.92,0.0
55630.0,STARLINK-5303,PAYLOAD,2024-03-14 12:32:07,14.98329684,0.0003018,69.9991,232.9188,268.7673,91.314,4.1616e-05,4.04e-06,0.0,0 STARLINK-5303,1 55630U 23021C   24074.52231135  .00000404  00000-0  41616-4 0  9996,2 55630  69.9991 232.9188 0003018 268.7673  91.3140 14.98329684 59374,6950.194,96.107,574.156,569.961,0.0
55630.0,STARLINK-5303,PAYLOAD,2024-03-14 20:32:47,14.98331357,0.0003033,69.9996,232.0773,268.9552,91.1259,5.4683e-05,5.6e-06,0.0,0 STARLINK-5303,1 55630U 23021C   24074.85611002  .00000560  00000-0  54683-4 0  9998,2 55630  69.9996 232.0773 0003033 268.9552  91.1259 14.98331357 59723,6950.189,96.107,574.162,569.946,0.0
55630.0,STARLINK-5303,PAYLOAD,2024-03-15 12:34:08,14.9833078,0.00029,70.0001,230.3939,269.2442,90.8385,2.3451e-05,1.87e-06,0.0,0 STARLINK-5303,1 55630U 23021C   24075.52371166  .00000187  00000-0  23451-4 0  9991,2 55630  70.0001 230.3939 0002900 269.2442  90.8385 14.98330780 59525,6950.19,96.107,574.071,570.04,0.0
55630.0,STARLINK-5303,PAYLOAD,2024-03-16 12:36:09,14.9833068,0.0002868,70.0005,227.8701,268.2754,91.8077,3.7827e-05,3.58e-06,0.0,0 STARLINK-5303,1 55630U 23021C   24076.52511084  .00000358  00000-0  37827-4 0  9999,2 55630  70.0005 227.8701 0002868 268.2754  91.8077 14.98330680 59679,6950.191,96.107,574.049,570.062,0.0
55630.0,STARLINK-5303,PAYLOAD,2024-03-16 14:12:17,14.98330319,0.0002856,70.0004,227.7016,266.6321,93.4511,3.4301e-05,3.16e-06,0.0,0 STARLINK-5303,1 55630U 23021C   24076.59187102  .00000316  00000-0  34301-4 0  9994,2 55630  70.0004 227.7016 0002856 266.6321  93.4511 14.98330319 59989,6950.192,96.107,574.042,570.072,0.0
55630.0,STARLINK-5303,PAYLOAD,2024-03-16 19:00:41,14.98330583,0.0002866,70.0006,227.1969,267.9233,92.1598,3.4491e-05,3.19e-06,0.0,0 STARLINK-5303,1 55630U 23021C   24076.79215095  .00000319  00000-0  34491-4 0  9992,2 55630  70.0006 227.1969 0002866 267.9233  92.1598 14.98330583 60019,6950.191,96.107,574.048,570.064,0.0
55630.0,STARLINK-5303,PAYLOAD,2024-03-17 12:38:10,14.98329341,0.0002896,70.0006,225.3452,265.8058,94.277,1.7917e-05,1.21e-06,0.0,0 STARLINK-5303,1 55630U 23021C   24077.52651161  .00000121  00000-0  17917-4 0  9997,2 55630  70.0006 225.3452 0002896 265.8058  94.2770 14.98329341 59823,6950.195,96.107,574.073,570.047,0.0
55630.0,STARLINK-5303,PAYLOAD,2024-03-17 14:14:18,14.9832934,0.0002899,70.0007,225.177,265.8035,94.2792,1.7905e-05,1.21e-06,0.0,0 STARLINK-5303,1 55630U 23021C   24077.59327163  .00000121  00000-0  17905-4 0  9993,2 55630  70.0007 225.1770 0002899 265.8035  94.2792 14.98329340 60132,6950.195,96.107,574.075,570.045,0.0
55630.0,STARLINK-5303,PAYLOAD,2024-03-17 19:02:42,14.98330669,0.0002862,70.0009,224.6723,265.3827,94.7005,3.2496e-05,2.95e-06,0.0,0 STARLINK-5303,1 55630U 23021C   24077.79355041  .00000295  00000-0  32496-4 0  9995,2 55630  70.0009 224.6723 0002862 265.3827  94.7005 14.98330669 60161,6950.191,96.107,574.045,570.067,0.0
55630.0,STARLINK-5303,PAYLOAD,2024-03-18 12:40:11,14.98329341,0.0002813,70.0012,222.8214,262.0865,97.9975,1.8606e-05,1.29e-06,0.0,0 STARLINK-5303,1 55630U 23021C   24078.52791147  .00000129  00000-0  18606-4 0  9991,2 55630  70.0012 222.8214 0002813 262.0865  97.9975 14.98329341 59975,6950.195,96.107,574.015,570.105,0.0
55630.0,STARLINK-5303,PAYLOAD,2024-03-18 19:04:43,14.98329826,0.0002876,70.0011,222.148,266.9124,93.1705,1.9022e-05,1.34e-06,0.0,0 STARLINK-5303,1 55630U 23021C   24078.79495149  .00000134  00000-0  19022-4 0  9992,2 55630  70.0011 222.1480 0002876 266.9124  93.1705 14.98329826 60319,6950.193,96.107,574.057,570.06,0.0
55630.0,STARLINK-5303,PAYLOAD,2024-03-19 11:06:03,14.98335144,0.0002977,70.0009,220.4642,268.1615,91.9203,7.7771e-05,8.35e-06,0.0,0 STARLINK-5303,1 55630U 23021C   24079.46254585  .00000835  00000-0  77771-4 0  9997,2 55630  70.0009 220.4642 0002977 268.1615  91.9203 14.98335144 60418,6950.177,96.107,574.111,569.973,0.0
55630.0,STARLINK-5303,PAYLOAD,2024-03-19 19:06:43,14.98341651,0.0002941,70.001,219.6225,267.6735,92.4087,0.00014564,1.646e-05,0.0,0 STARLINK-5303,1 55630U 23021C   24079.79633869  .00001646  00000-0  14564-3 0  9990,2 55630  70.0010 219.6225 0002941 267.6735  92.4087 14.98341651 60163,6950.157,96.106,574.066,569.978,0.0
55630.0,STARLINK-5303,PAYLOAD,2024-03-20 09:31:57,14.98326636,0.0002328,70.0028,218.1123,262.1941,97.8954,-7.3727e-06,-1.81e-06,0.0,0 STARLINK-5303,1 55630U 23021C   24080.39719412 -.00000181  00000-0 -73727-5 0  9990,2 55630  70.0028 218.1123 0002328 262.1941  97.8954 14.98326636 60259,6950.203,96.107,573.686,570.45,0.0
55630.0,STARLINK-5303,PAYLOAD,2024-03-20 14:20:22,14.98323443,0.0002754,70.0019,217.6061,262.8719,97.2127,-5.1543e-05,-7.08e-06,0.0,0 STARLINK-5303,1 55630U 23021C   24080.59747748 -.00000708  00000-0 -51543-4 0  9991,2 55630  70.0019 217.6061 0002754 262.8719  97.2127 14.98323443 60582,6950.213,96.107,573.992,570.164,0.0
55630.0,STARLINK-5303,PAYLOAD,2024-03-20 19:08:41,14.98377637,0.0003212,70.0018,217.1006,246.1907,113.8915,0.00053355,6.287e-05,0.0,0 STARLINK-5303,1 55630U 23021C   24080.79770552  .00006287  00000-0  53355-3 0  9990,2 55630  70.0018 217.1006 0003212 246.1907 113.8915 14.98377637 60314,6950.046,96.104,574.143,569.678,0.0
55630.0,STARLINK-5303,PAYLOAD,2024-03-21 11:10:05,14.98338929,0.0003489,70.0002,215.421,277.3328,82.7435,-0.00010479,-1.344e-05,0.0,0 STARLINK-5303,1 55630U 23021C   24081.46534329 -.00001344  00000-0 -10479-3 0  9996,2 55630  70.0002 215.4210 0003489 277.3328  82.7435 14.98338929 60417,6950.165,96.106,574.455,569.605,0.0
55630.0,STARLINK-5303,PAYLOAD,2024-03-21 19:10:46,14.98322848,0.0002417,70.0014,214.5746,269.3992,90.689,-0.00017941,-2.232e-05,0.0,0 STARLINK-5303,1 55630U 23021C   24081.79915462 -.00002232  00000-0 -17941-3 0  9991,2 55630  70.0014 214.5746 0002417 269.3992  90.6890 14.98322848 60463,6950.215,96.107,573.76,570.4,0.0
55630.0,STARLINK-5303,PAYLOAD,2024-03-22 14:24:23,14.98323146,0.0002614,70.0012,212.5537,278.6747,81.4116,0.00011351,1.261e-05,0.0,0 STARLINK-5303,1 55630U 23021C   24082.60027215  .00001261  00000-0  11351-3 0  9990,2 55630  70.0012 212.5537 0002614 278.6747  81.4116 14.98323146 60884,6950.214,96.107,573.896,570.262,0.0
55630.0,STARLINK-5303,PAYLOAD,2024-03-22 19:12:47,14.98330327,0.0002484,70.0013,212.049,278.938,81.1498,0.00019756,2.265e-05,0.0,0 STARLINK-5303,1 55630U 23021C   24082.80054732  .00002265  00000-0  19756-3 0  9998,2 55630  70.0013 212.0490 0002484 278.9380  81.1498 14.98330327 60619,6950.192,96.107,573.783,570.33,0.0
55630.0,STARLINK-5303,PAYLOAD,2024-03-23 12:50:16,14.98314216,0.0002072,70.0025,210.1967,260.0966,99.9959,0.00026629,3.084e-05,0.0,0 STARLINK-5303,1 55630U 23021C   24083.53491519  .00003084  00000-0  26629-3 0  9994,2 55630  70.0025 210.1967 0002072 260.0966  99.9959 14.98314216 60725,6950.242,96.108,573.547,570.667,0.0
55630.0,STARLINK-5303,PAYLOAD,2024-03-23 17:38:40,14.98321532,0.0002303,70.0016,209.6931,274.9724,85.1172,0.00022584,2.602e-05,0.0,0 STARLINK-5303,1 55630U 23021C   24083.73519404  .00002602  00000-0  22584-3 0  9991,2 55630  70.0016 209.6931 0002303 274.9724  85.1172 14.98321532 61052,6950.219,96.108,573.685,570.483,0.0
55630.0,STARLINK-5303,PAYLOAD,2024-03-24 12:52:16,14.98342748,0.0002493,70.0029,207.6725,276.0202,84.0673,0.00033477,3.905e-05,0.0,0 STARLINK-5303,1 55630U 23021C   24084.53630582  .00003905  00000-0  33477-3 0  9991,2 55630  70.0029 207.6725 0002493 276.0202  84.0673 14.98342748 60874,6950.153,96.106,573.751,570.286,0.0
55630.0,STARLINK-5303,PAYLOAD,2024-03-24 14:28:24,14.98344501,0.0002395,70.003,207.5042,272.4234,87.6651,0.00038152,4.464e-05,0.0,0 STARLINK-5303,1 55630U 23021C   24084.60306504  .00004464  00000-0  38152-3 0  9999,2 55630  70.0030 207.5042 0002395 272.4234  87.6651 14.98344501 61182,6950.148,96.106,573.678,570.348,0.0
55630.0,STARLINK-5303,PAYLOAD,2024-03-24 17:40:40,14.98355239,0.0002273,70.0037,207.1677,262.2778,97.8123,0.000754,8.921e-05,0.0,0 STARLINK-5303,1 55630U 23021C   24084.73658104  .00008921  00000-0  75400-3 0  9998,2 55630  70.0037 207.1677 0002273 262.2778  97.8123 14.98355239 60900,6950.115,96.105,573.56,570.4,0.0
